ARKYD 6A                
1 43130U 18004V   19184.61018971  .00000701  00000-0  32581-4 0  9991
2 43130  97.4876 252.2457 0009403 192.5592 167.5412 15.23269856 81765
MICROMAS-2A             
1 43131U 18004W   19184.18725426  .00001205  00000-0  52513-4 0  9991
2 43131  97.4885 252.2166 0009017 192.5798 167.5215 15.24138444 81728
PICSAT                  
1 43132U 18004X   19185.13763002  .00000944  00000-0  42462-4 0  9991
2 43132  97.4878 252.9252 0009365 190.7089 169.3950 15.23584996 81859
CNUSAIL-1               
1 43133U 18004Y   19184.87037678  .00000660  00000-0  30887-4 0  9998
2 43133  97.4871 252.4917 0009296 191.9148 168.1870 15.23230632 81806
2018-004Z               
1 43134U 18004Z   19184.81793269  .00000792  00000-0  36205-4 0  9994
2 43134  97.4876 252.5848 0009116 192.2352 167.8665 15.23483253 81805
2018-004AA              
1 43135U 18004AA  19185.15672418  .00001036  00000-0  46006-4 0  9997
2 43135  97.4879 253.0497 0009135 191.3440 168.7593 15.23794884 81865
2018-004AB              
1 43136U 18004AB  19185.18615560  .00001178  00000-0  51628-4 0  9999
2 43136  97.4884 253.1819 0008979 191.0723 169.0318 15.23986463 81862
FOX-1D (AO-92)          
1 43137U 18004AC  19185.13029796  .00000742  00000-0  34123-4 0  9992
2 43137  97.4869 252.8984 0008870 192.2542 167.8481 15.23473276 81845
SPACEBEE-4              
1 43139U 18004AE  19184.85626878  .00001839  00000-0  76660-4 0  9996
2 43139  97.4902 253.3868 0008477 192.0010 168.1027 15.24974342 81844
SPACEBEE-3              
1 43140U 18004AF  19184.82960787  .00002478  00000-0  10071-3 0  9998
2 43140  97.4912 253.6143 0008396 190.9545 169.1511 15.25499970 81867
SPACEBEE-2              
1 43141U 18004AG  19185.19174489  .00002518  00000-0  10174-3 0  9995
2 43141  97.4915 254.0626 0008389 189.4619 170.6462 15.25679496 81921
SPACEBEE-1              
1 43142U 18004AH  19184.82830026  .00002802  00000-0  11222-3 0  9992
2 43142  97.4919 253.8001 0008261 190.5333 169.5734 15.25878222 81865
CICERO 7                
1 43143U 18004AJ  19185.19408785  .00001195  00000-0  51898-4 0  9995
2 43143  97.4871 253.4371 0006978 196.3065 163.7949 15.24273500 81892
TYVAK-61C               
1 43144U 18004AK  19184.88337179  .00001275  00000-0  54468-4 0  9994
2 43144  97.4890 253.4461 0007390 203.3879 156.7024 15.24724044 81862
LKW-3                   
1 43146U 18006A   19185.18386669  .00000436  00000-0  21302-4 0  9999
2 43146  97.3860 301.8520 0006189 160.9865 317.3901 15.23348645 81746
ASNARO-2                
1 43152U 18007A   19185.20781697  .00000635  00000-0  30496-4 0  9995
2 43152  97.4139 188.7083 0001702  87.5584 332.6310 15.22402579 80971
XIAOXIANG-2             
1 43155U 18008A   19185.17176726  .00000088  00000-0  90835-5 0  9992
2 43155  97.4864 257.3872 0016053 272.4353 171.3541 15.11145732 80160
ZHOU ENLAI              
1 43156U 18008B   19185.15385074  .00000363  00000-0  25734-4 0  9990
2 43156  97.4912 257.2628 0013224 270.1058 152.7944 15.10649633 80132
KIPP                    
1 43157U 18008C   19184.51171090  .00000572  00000-0  38600-4 0  9999
2 43157  97.4938 256.5751 0014023 265.4953  94.4675 15.10399806 80024
QUANTUTONG 1            
1 43158U 18008D   19185.13575735  .00000832  00000-0  54639-4 0  9992
2 43158  97.4869 256.7156 0012428 267.5350 149.2293 15.10247366 80095
JILIN-01-07             
1 43159U 18008E   19185.17201810 -.00000055  00000-0  50216-6 0  9994
2 43159  97.4851 256.4196 0012358 266.0065 177.8607 15.09778957 80096
JILIN-01-08             
1 43160U 18008F   19185.12762806  .00000359  00000-0  26059-4 0  9990
2 43160  97.4847 256.3010 0008259 280.6185 166.5163 15.09786262 80086
SBIRS GEO-4 (USA 282)   
1 43162U 18009A   19184.77387314 -.00000287  00000-0  00000+0 0  9994
2 43162   5.6100 318.2306 0002113 138.1868 242.6847  1.00270715  5365
DOVE PIONEER            
1 43163U 18010A   19185.10379950  .00079933  10774-5  18829-3 0  9991
2 43163  82.9007 324.5151 0062626  17.6204 342.7222 15.93161227 82906
LEMUR-2-MARSHALL        
1 43165U 18010C   19185.07587091  .00001195  00000-0  53684-4 0  9996
2 43165  82.9171   3.6788 0031300 183.1757 176.9285 15.19669459 80292
LEMUR-2-TALLHAMN-ATC    
1 43167U 18010E   19184.99688165  .00001167  00000-0  55839-4 0  9995
2 43167  82.9202   5.3877 0024319 192.9653 167.0960 15.17654175 80188
WEINA 1A                
1 43169U 18011A   19185.21507251  .00000049  00000-0  78264-5 0  9996
2 43169  35.0008 289.7498 0002327  83.6707 276.4264 14.89635901 78308
YAOGAN-30 K             
1 43170U 18011B   19184.97622256  .00000084  00000-0  11382-4 0  9999
2 43170  34.9995 291.5219 0006910 346.5801  13.4750 14.89649597 78263
YAOGAN-30 L             
1 43171U 18011C   19184.96949075  .00000099  00000-0  12964-4 0  9993
2 43171  34.9989 291.4434 0003186  13.1064 346.9737 14.89639352 78262
YAOGAN-30 M             
1 43172U 18011D   19184.69580654  .00000049  00000-0  78499-5 0  9999
2 43172  35.0003 293.0541 0003352  70.7150 289.3917 14.89652165 78222
AL YAH 3                
1 43174U 18012A   19185.14216010 -.00000158  00000-0  00000+0 0  9994
2 43174   0.0223  27.9869 0001696  74.2943 210.6457  1.00269259  5374
SES-14                  
1 43175U 18012B   19184.80841858 -.00000280  00000-0  00000-0 0  9998
2 43175   0.0160  25.9104 0000739  68.6563  70.4887  1.00270138  5600
KANOPUS-V 3             
1 43180U 18014A   19185.21299822  .00000239  00000-0  14637-4 0  9998
2 43180  97.4589  93.2710 0001857  76.7053  49.5360 15.19013902 78644
KANOPUS-V 4             
1 43181U 18014B   19185.18712631  .00000089  00000-0  74645-5 0  9992
2 43181  97.4580  93.4399 0001706  88.1506  41.0047 15.19017028 78657
LEMUR-2-JIN-LUEN        
1 43182U 18014C   19184.31767667 -.00000171  00000-0 -99796-5 0  9994
2 43182  97.7032  91.7574 0013539 326.3183  33.7177 14.96270234 77299
LEMUR-2-URAMCHANSOL     
1 43183U 18014D   19184.70539658  .00000409  00000-0  41211-4 0  9995
2 43183  97.7033  92.1671 0013174 325.7583  34.2788 14.96321662 77359
LEMUR-2-KADI            
1 43184U 18014E   19184.69733399  .00000739  00000-0  70363-4 0  9998
2 43184  97.7033  92.1804 0013070 326.6738  33.3659 14.96341887 77353
LEMUR-2-THENICKMOLO     
1 43185U 18014F   19184.89349780  .00000795  00000-0  75319-4 0  9996
2 43185  97.7034  92.3863 0012838 326.5178  33.5231 14.96326406 77381
S-NET D                 
1 43186U 18014G   19184.80209546 -.00000090  00000-0 -27750-5 0  9990
2 43186  97.7085  93.0373 0010219 321.0302  39.0182 14.96646070 77391
S-NET B                 
1 43187U 18014H   19184.53449148 -.00000118  00000-0 -52424-5 0  9992
2 43187  97.7084  92.7615 0010242 321.9510  38.0987 14.96646263 77354
S-NET A                 
1 43188U 18014J   19185.20286421 -.00000050  00000-0  68856-6 0  9992
2 43188  97.7085  93.4374 0010191 319.5441  40.5022 14.96645922 77455
S-NET C                 
1 43189U 18014K   19184.53462120 -.00000097  00000-0 -34274-5 0  9998
2 43189  97.7084  92.7591 0010242 321.9463  38.1034 14.96645735 75902
FENGMANIU-1 (FMN-1)     
1 43192U 18015A   19184.95723159  .00001216  00000-0  52621-4 0  9998
2 43192  97.4009 312.5091 0014787 238.7219 121.2566 15.24287763 78643
ZHANGZHENG-1 (CSES)     
1 43194U 18015C   19184.96395439  .00000510  00000-0  26096-4 0  9990
2 43194  97.3951 310.4474 0014341 256.9309 103.0326 15.20941848 78548
NUSAT-4 (ADA)           
1 43195U 18015D   19185.20610250  .00000667  00000-0  30598-4 0  9995
2 43195  97.3967 312.5291 0016261 244.7700 235.0152 15.23784687 78697
GOMX-4B                 
1 43196U 18015E   19184.93747461  .00000406  00000-0  19698-4 0  9999
2 43196  97.3926 312.2636 0017717 254.8073 105.1206 15.23947835 78665
GOMX-4A                 
1 43197U 18015F   19185.20270899  .00000403  00000-0  19518-4 0  9995
2 43197  97.3939 312.5501 0017601 251.9722 227.6993 15.24043086 78710
SHAONIAN XING           
1 43199U 18015H   19184.89745765  .00000868  00000-0  37796-4 0  9993
2 43199  97.3790 311.5440 0015657 251.1489 108.8051 15.24795859 78682
NUSAT-5 (MARYAM)        
1 43204U 18015K   19185.17599715  .00000614  00000-0  28274-4 0  9994
2 43204  97.3984 312.5807 0015711 247.5561 234.4869 15.23983842 78293
BEIDOU-3 M5             
1 43207U 18018A   19184.34601231  .00000040  00000-0  00000-0 0  9991
2 43207  55.0731 148.1113 0009102 317.4353  42.4504  1.86231800  9429
BEIDOU-3 M6             
1 43208U 18018B   19184.41274960  .00000040  00000-0  00000-0 0  9995
2 43208  55.0748 148.1162 0010825 296.6113  63.2332  1.86231808  9426
PAZ                     
1 43215U 18020A   19185.11075197 -.00000126  00000-0 -27869-5 0  9999
2 43215  97.4454 191.8740 0001639  87.2418 359.9890 15.19151324 75387
TINTIN A                
1 43216U 18020B   19184.90599585  .00001651  00000-0  79241-4 0  9990
2 43216  97.4512 192.6356 0012438 353.1281   6.9782 15.20216671 75374
TINTIN B                
1 43217U 18020C   19185.09406334  .00001631  00000-0  78244-4 0  9991
2 43217  97.4579 193.3056 0011613 350.8605   9.2417 15.20272183 75406
GOES 17                 
1 43226U 18022A   19184.79027351  .00000096  00000-0  00000-0 0  9992
2 43226   0.0436 136.8607 0000982 297.0601 354.8845  1.00271239  4935
HISPASAT 30W-6          
1 43228U 18023A   19184.74015046 -.00000217  00000-0  00000+0 0  9993
2 43228   0.0418  50.2963 0005559  31.1026  76.5146  1.00271460  5023
PODSAT                  
1 43229U 18023B   19185.03759203  .00083905  99646-6  89356-3 0  9996
2 43229  26.9426  82.2408 6031683  53.7616 348.0368  4.09913157 27134
O3B FM15                
1 43231U 18024A   19183.88306812 -.00000015  00000-0  00000+0 0  9992
2 43231   0.0452  15.4573 0003684  48.8686 295.7124  4.99944739 24040
O3B FM16                
1 43232U 18024B   19184.53344120 -.00000016  00000-0  00000-0 0  9992
2 43232   0.0448  20.5882 0003069 357.9700 341.4528  4.99830427 24072
